[{"OBJECT_NAME":"ONEWEB-0259","OBJECT_ID":"2021-060L","EPOCH":"2026-04-18T06:55:18.877152","MEAN_MOTION":13.16596425,"ECCENTRICITY":0.0001795,"INCLINATION":87.9071,"RA_OF_ASC_NODE":240.6805,"ARG_OF_PERICENTER":95.8384,"MEAN_ANOMALY":264.2952,"EPHEMERIS_TYPE":0,"CLASSIFICATION_TYPE":"U","NORAD_CAT_ID":48977,"ELEMENT_SET_NO":999,"REV_AT_EPOCH":23174,"BSTAR":0.00019697,"MEAN_MOTION_DOT":8.8e-07,"MEAN_MOTION_DDOT":0.0},{"OBJECT_NAME":"ONEWEB-0260","OBJECT_ID":"2021-060M","EPOCH":"2026-04-18T03:03:53.802720","MEAN_MOTION":13.16594106,"ECCENTRICITY":0.0002124,"INCLINATION":87.9068,"RA_OF_ASC_NODE":240.7177,"ARG_OF_PERICENTER":110.3823,"MEAN_ANOMALY":249.7537,"EPHEMERIS_TYPE":0,"CLASSIFICATION_TYPE":"U","NORAD_CAT_ID":48978,"ELEMENT_SET_NO":999,"REV_AT_EPOCH":23170,"BSTAR":0.00010177,"MEAN_MOTION_DOT":5.2e-07,"MEAN_MOTION_DDOT":0.0},{"OBJECT_NAME":"ONEWEB-0261","OBJECT_ID":"2021-060N","EPOCH":"2026-04-18T02:20:34.756800","MEAN_MOTION":13.16595229,"ECCENTRICITY":0.0002204,"INCLINATION":87.9058,"RA_OF_ASC_NODE":240.7216,"ARG_OF_PERICENTER":96.4058,"MEAN_ANOMALY":263.7324,"EPHEMERIS_TYPE":0,"CLASSIFICATION_TYPE":"U","NORAD_CAT_ID":48979,"ELEMENT_SET_NO":999,"REV_AT_EPOCH":23175,"BSTAR":-0.00021274000000000003,"MEAN_MOTION_DOT":-6.8e-07,"MEAN_MOTION_DDOT":0.0},{"OBJECT_NAME":"ONEWEB-0262","OBJECT_ID":"2021-060P","EPOCH":"2026-04-18T01:52:05.210112","MEAN_MOTION":13.16593783,"ECCENTRICITY":0.0001753,"INCLINATION":87.9065,"RA_OF_ASC_NODE":240.7097,"ARG_OF_PERICENTER":91.5359,"MEAN_ANOMALY":268.5972,"EPHEMERIS_TYPE":0,"CLASSIFICATION_TYPE":"U","NORAD_CAT_ID":48980,"ELEMENT_SET_NO":999,"REV_AT_EPOCH":23171,"BSTAR":-0.00024367,"MEAN_MOTION_DOT":-8e-07,"MEAN_MOTION_DDOT":0.0},{"OBJECT_NAME":"ONEWEB-0263","OBJECT_ID":"2021-060Q","EPOCH":"2026-04-18T02:37:40.466496","MEAN_MOTION":13.1659415,"ECCENTRICITY":0.0002089,"INCLINATION":87.9065,"RA_OF_ASC_NODE":240.7149,"ARG_OF_PERICENTER":93.0465,"MEAN_ANOMALY":267.0905,"EPHEMERIS_TYPE":0,"CLASSIFICATION_TYPE":"U","NORAD_CAT_ID":48981,"ELEMENT_SET_NO":999,"REV_AT_EPOCH":23168,"BSTAR":-1.7603e-05,"MEAN_MOTION_DOT":6e-08,"MEAN_MOTION_DDOT":0.0},{"OBJECT_NAME":"ONEWEB-0264","OBJECT_ID":"2021-060R","EPOCH":"2026-04-18T07:10:08.326272","MEAN_MOTION":13.16595325,"ECCENTRICITY":0.000209,"INCLINATION":87.9066,"RA_OF_ASC_NODE":240.681,"ARG_OF_PERICENTER":102.0939,"MEAN_ANOMALY":258.0426,"EPHEMERIS_TYPE":0,"CLASSIFICATION_TYPE":"U","NORAD_CAT_ID":48982,"ELEMENT_SET_NO":999,"REV_AT_EPOCH":23171,"BSTAR":3.9761e-05,"MEAN_MOTION_DOT":2.8e-07,"MEAN_MOTION_DDOT":0.0},{"OBJECT_NAME":"ONEWEB-0266","OBJECT_ID":"2021-060T","EPOCH":"2026-04-18T02:12:36.181152","MEAN_MOTION":13.1659368,"ECCENTRICITY":0.0001769,"INCLINATION":87.9066,"RA_OF_ASC_NODE":240.712,"ARG_OF_PERICENTER":100.7674,"MEAN_ANOMALY":259.3656,"EPHEMERIS_TYPE":0,"CLASSIFICATION_TYPE":"U","NORAD_CAT_ID":48984,"ELEMENT_SET_NO":999,"REV_AT_EPOCH":23167,"BSTAR":-0.00013994000000000002,"MEAN_MOTION_DOT":-4.1e-07,"MEAN_MOTION_DDOT":0.0},{"OBJECT_NAME":"ONEWEB-0267","OBJECT_ID":"2021-060U","EPOCH":"2026-04-18T02:28:33.768768","MEAN_MOTION":13.16594041,"ECCENTRICITY":0.0002041,"INCLINATION":87.9065,"RA_OF_ASC_NODE":240.7057,"ARG_OF_PERICENTER":97.9803,"MEAN_ANOMALY":262.1559,"EPHEMERIS_TYPE":0,"CLASSIFICATION_TYPE":"U","NORAD_CAT_ID":48985,"ELEMENT_SET_NO":999,"REV_AT_EPOCH":23168,"BSTAR":-0.00016961000000000002,"MEAN_MOTION_DOT":-5.2e-07,"MEAN_MOTION_DDOT":0.0},{"OBJECT_NAME":"ONEWEB-0268","OBJECT_ID":"2021-060V","EPOCH":"2026-04-18T01:42:56.323872","MEAN_MOTION":13.1660321,"ECCENTRICITY":0.0001818,"INCLINATION":87.9082,"RA_OF_ASC_NODE":240.7216,"ARG_OF_PERICENTER":107.0259,"MEAN_ANOMALY":253.1071,"EPHEMERIS_TYPE":0,"CLASSIFICATION_TYPE":"U","NORAD_CAT_ID":48986,"ELEMENT_SET_NO":999,"REV_AT_EPOCH":23194,"BSTAR":-0.0036101,"MEAN_MOTION_DOT":-1.367e-05,"MEAN_MOTION_DDOT":0.0},{"OBJECT_NAME":"ONEWEB-0269","OBJECT_ID":"2021-060W","EPOCH":"2026-04-18T03:05:02.802624","MEAN_MOTION":13.16588106,"ECCENTRICITY":0.0001929,"INCLINATION":87.9056,"RA_OF_ASC_NODE":240.72,"ARG_OF_PERICENTER":107.9615,"MEAN_ANOMALY":252.1727,"EPHEMERIS_TYPE":0,"CLASSIFICATION_TYPE":"U","NORAD_CAT_ID":48987,"ELEMENT_SET_NO":999,"REV_AT_EPOCH":23172,"BSTAR":0.0029993,"MEAN_MOTION_DOT":1.159e-05,"MEAN_MOTION_DDOT":0.0},{"OBJECT_NAME":"ONEWEB-0270","OBJECT_ID":"2021-060X","EPOCH":"2026-04-18T01:40:41.414592","MEAN_MOTION":13.16593779,"ECCENTRICITY":0.0001967,"INCLINATION":87.9072,"RA_OF_ASC_NODE":240.7239,"ARG_OF_PERICENTER":89.606,"MEAN_ANOMALY":270.5296,"EPHEMERIS_TYPE":0,"CLASSIFICATION_TYPE":"U","NORAD_CAT_ID":48988,"ELEMENT_SET_NO":999,"REV_AT_EPOCH":23175,"BSTAR":-0.00019249,"MEAN_MOTION_DOT":-6.1e-07,"MEAN_MOTION_DDOT":0.0},{"OBJECT_NAME":"ONEWEB-0271","OBJECT_ID":"2021-060Y","EPOCH":"2026-04-18T03:11:53.524032","MEAN_MOTION":13.16594206,"ECCENTRICITY":0.0002024,"INCLINATION":87.9066,"RA_OF_ASC_NODE":240.7028,"ARG_OF_PERICENTER":95.1986,"MEAN_ANOMALY":264.9376,"EPHEMERIS_TYPE":0,"CLASSIFICATION_TYPE":"U","NORAD_CAT_ID":48989,"ELEMENT_SET_NO":999,"REV_AT_EPOCH":23176,"BSTAR":0.00016884,"MEAN_MOTION_DOT":7.7e-07,"MEAN_MOTION_DDOT":0.0},{"OBJECT_NAME":"ONEWEB-0272","OBJECT_ID":"2021-060Z","EPOCH":"2026-04-18T07:22:38.898624","MEAN_MOTION":13.16593508,"ECCENTRICITY":0.0002179,"INCLINATION":87.9067,"RA_OF_ASC_NODE":240.6785,"ARG_OF_PERICENTER":103.8894,"MEAN_ANOMALY":256.2479,"EPHEMERIS_TYPE":0,"CLASSIFICATION_TYPE":"U","NORAD_CAT_ID":48990,"ELEMENT_SET_NO":999,"REV_AT_EPOCH":23173,"BSTAR":-2.6850000000000002e-05,"MEAN_MOTION_DOT":3e-08,"MEAN_MOTION_DDOT":0.0},{"OBJECT_NAME":"ONEWEB-0273","OBJECT_ID":"2021-060AA","EPOCH":"2026-04-18T02:26:17.482272","MEAN_MOTION":13.16593297,"ECCENTRICITY":0.0001986,"INCLINATION":87.9067,"RA_OF_ASC_NODE":240.7181,"ARG_OF_PERICENTER":96.763,"MEAN_ANOMALY":263.3727,"EPHEMERIS_TYPE":0,"CLASSIFICATION_TYPE":"U","NORAD_CAT_ID":48991,"ELEMENT_SET_NO":999,"REV_AT_EPOCH":23168,"BSTAR":-0.00020166999999999999,"MEAN_MOTION_DOT":-6.4e-07,"MEAN_MOTION_DDOT":0.0},{"OBJECT_NAME":"ONEWEB-0274","OBJECT_ID":"2021-060AB","EPOCH":"2026-04-17T21:34:26.655168","MEAN_MOTION":13.16593568,"ECCENTRICITY":0.0002105,"INCLINATION":87.9057,"RA_OF_ASC_NODE":240.7675,"ARG_OF_PERICENTER":107.1088,"MEAN_ANOMALY":253.0273,"EPHEMERIS_TYPE":0,"CLASSIFICATION_TYPE":"U","NORAD_CAT_ID":48992,"ELEMENT_SET_NO":999,"REV_AT_EPOCH":23169,"BSTAR":9.7922e-05,"MEAN_MOTION_DOT":5e-07,"MEAN_MOTION_DDOT":0.0},{"OBJECT_NAME":"ONEWEB-0275","OBJECT_ID":"2021-060AC","EPOCH":"2026-04-18T02:46:47.956512","MEAN_MOTION":13.16594627,"ECCENTRICITY":0.0001917,"INCLINATION":87.9065,"RA_OF_ASC_NODE":240.7075,"ARG_OF_PERICENTER":101.275,"MEAN_ANOMALY":258.8596,"EPHEMERIS_TYPE":0,"CLASSIFICATION_TYPE":"U","NORAD_CAT_ID":48993,"ELEMENT_SET_NO":999,"REV_AT_EPOCH":23165,"BSTAR":0.00024426,"MEAN_MOTION_DOT":1.06e-06,"MEAN_MOTION_DDOT":0.0}]