ONEWEB-0259             
1 48977U 21060L   26108.28841293  .00000088  00000+0  19697-3 0  9998
2 48977  87.9071 240.6805 0001795  95.8384 264.2952 13.16596425231742
ONEWEB-0260             
1 48978U 21060M   26108.12770605  .00000052  00000+0  10177-3 0  9995
2 48978  87.9068 240.7177 0002124 110.3823 249.7537 13.16594106231707
ONEWEB-0261             
1 48979U 21060N   26108.09762450 -.00000068  00000+0 -21274-3 0  9990
2 48979  87.9058 240.7216 0002204  96.4058 263.7324 13.16595229231756
ONEWEB-0262             
1 48980U 21060P   26108.07783808 -.00000080  00000+0 -24367-3 0  9990
2 48980  87.9065 240.7097 0001753  91.5359 268.5972 13.16593783231712
ONEWEB-0263             
1 48981U 21060Q   26108.10949614  .00000006  00000+0 -17603-4 0  9997
2 48981  87.9065 240.7149 0002089  93.0465 267.0905 13.16594150231684
ONEWEB-0264             
1 48982U 21060R   26108.29870748  .00000028  00000+0  39761-4 0  9991
2 48982  87.9066 240.6810 0002090 102.0939 258.0426 13.16595325231716
ONEWEB-0266             
1 48984U 21060T   26108.09208543 -.00000041  00000+0 -13994-3 0  9995
2 48984  87.9066 240.7120 0001769 100.7674 259.3656 13.16593680231672
ONEWEB-0267             
1 48985U 21060U   26108.10316862 -.00000052  00000+0 -16961-3 0  9991
2 48985  87.9065 240.7057 0002041  97.9803 262.1559 13.16594041231683
ONEWEB-0268             
1 48986U 21060V   26108.07148523 -.00001367  00000+0 -36101-2 0  9992
2 48986  87.9082 240.7216 0001818 107.0259 253.1071 13.16603210231946
ONEWEB-0269             
1 48987U 21060W   26108.12850466  .00001159  00000+0  29993-2 0  9993
2 48987  87.9056 240.7200 0001929 107.9615 252.1727 13.16588106231728
ONEWEB-0270             
1 48988U 21060X   26108.06992378 -.00000061  00000+0 -19249-3 0  9993
2 48988  87.9072 240.7239 0001967  89.6060 270.5296 13.16593779231751
ONEWEB-0271             
1 48989U 21060Y   26108.13325838  .00000077  00000+0  16884-3 0  9990
2 48989  87.9066 240.7028 0002024  95.1986 264.9376 13.16594206231768
ONEWEB-0272             
1 48990U 21060Z   26108.30739466  .00000003  00000+0 -26850-4 0  9992
2 48990  87.9067 240.6785 0002179 103.8894 256.2479 13.16593508231735
ONEWEB-0273             
1 48991U 21060AA  26108.10159123 -.00000064  00000+0 -20167-3 0  9999
2 48991  87.9067 240.7181 0001986  96.7630 263.3727 13.16593297231684
ONEWEB-0274             
1 48992U 21060AB  26107.89891962  .00000050  00000+0  97922-4 0  9996
2 48992  87.9057 240.7675 0002105 107.1088 253.0273 13.16593568231694
ONEWEB-0275             
1 48993U 21060AC  26108.11583283  .00000106  00000+0  24426-3 0  9997
2 48993  87.9065 240.7075 0001917 101.2750 258.8596 13.16594627231653
